{
  "norad_id": 62838,
  "name": "STARLINK-11556 [DTC]",
  "history": [
    {
      "epoch": "2026-03-28T15:23:39.198624",
      "apogee_km": 357.8144669549374,
      "perigee_km": 354.836891625916,
      "latitude_deg": 33.66974893997817,
      "longitude_deg": 165.37688735988922,
      "semi_major_axis_km": 6734.462679290426,
      "eccentricity": 0.00022107,
      "inclination_deg": 43.0016,
      "raan_deg": 191.5403,
      "arg_perigee_deg": 278.6036,
      "mean_anomaly_deg": 81.4581,
      "mean_motion_rev_day": 15.70899264
    }
  ]
}