{"fetched_at":"2026-03-29T16:36:15Z","count":15609,"tles":[{"name":"STARLINK-11556 [DTC]","line1":"1 62838U 25019K   26087.64142591  .00210188  00000+0  15964-2 0  9995","line2":"2 62838  43.0016 191.5403 0002210 278.6036  81.4581 15.70899264 66867","category":"Starlink"}]}